FENGYUN 1C DEB          
1 31313U 99025BPR 17345.58094440  .00000080  00000-0  59706-4 0  9999
2 31313  99.0791 117.8202 0046864 219.5209 140.2545 14.19236607555741
